{"type": "FeatureCollection", "features": [ {"type": "Feature", "properties": {"norad_id": 36274, "name": "FENGYUN 1C DEB", "group": "fengyun-1c-debris", "lat": -71.3691866331746, "lon": 87.91782022552354, "alt_km": 793.2773517697615, "timestamp": "2025-12-11T07:02:24.018474+00:00", "meta": {"OBJECT_NAME": "FENGYUN 1C DEB", "OBJECT_ID": "1999-025DXB", "EPOCH": "2025-12-09T11:35:55.514688", "MEAN_MOTION": 14.23402311, "ECCENTRICITY": 0.00622561, "INCLINATION": 99.139, "RA_OF_ASC_NODE": 57.5181, "ARG_OF_PERICENTER": 239.4806, "MEAN_ANOMALY": 136.1937, "EPHEMERIS_TYPE": 0, "CLASSIFICATION_TYPE": "U", "NORAD_CAT_ID": 36274, "ELEMENT_SET_NO": 999, "REV_AT_EPOCH": 62939, "BSTAR": 0.0044809329, "MEAN_MOTION_DOT": 0.00010342, "MEAN_MOTION_DDOT": 0}, "tle": {"line1": "1 36274U 99025DXB 25343.48328142  .00010342  00000+0  44809-2 0  9992", "line2": "2 36274  99.1390  57.5181 0062256 239.4806 136.1937 14.23402311629395"}}, "geometry": {"type": "Point", "coordinates": [87.91782022552354, -71.3691866331746]}}, {"type": "Feature", "properties": {"norad_id": 36278, "name": "FENGYUN 1C DEB", "group": "fengyun-1c-debris", "lat": -5.367515772054639, "lon": 82.68097064771773, "alt_km": 852.5287375816342, "timestamp": "2025-12-11T07:02:24.018484+00:00", "meta": {"OBJECT_NAME": "FENGYUN 1C DEB", "OBJECT_ID": "1999-025DXF", "EPOCH": "2025-12-04T01:21:08.443872", "MEAN_MOTION": 14.17353569, "ECCENTRICITY": 0.00613363, "INCLINATION": 99.1236, "RA_OF_ASC_NODE": 256.1206, "ARG_OF_PERICENTER": 315.5831, "MEAN_ANOMALY": 44.0433, "EPHEMERIS_TYPE": 0, "CLASSIFICATION_TYPE": "U", "NORAD_CAT_ID": 36278, "ELEMENT_SET_NO": 999, "REV_AT_EPOCH": 93353, "BSTAR": 0.0008477729, "MEAN_MOTION_DOT": 1.7e-05, "MEAN_MOTION_DDOT": 0}, "tle": {"line1": "1 36278U 99025DXF 25338.05634773  .00001700  00000+0  84777-3 0  9990", "line2": "2 36278  99.1236 256.1206 0061336 315.5831  44.0433 14.17353569933530"}}, "geometry": {"type": "Point", "coordinates": [82.68097064771773, -5.367515772054639]}}, {"type": "Feature", "properties": {"norad_id": 36279, "name": "FENGYUN 1C DEB", "group": "fengyun-1c-debris", "lat": -43.624868699036135, "lon": 135.10335925751784, "alt_km": 893.8168932657345, "timestamp": "2025-12-11T07:02:24.018495+00:00", "meta": {"OBJECT_NAME": "FENGYUN 1C DEB", "OBJECT_ID": "1999-025DXG", "EPOCH": "2025-12-08T04:59:58.612992", "MEAN_MOTION": 14.147242, "ECCENTRICITY": 0.00630677, "INCLINATION": 98.5605, "RA_OF_ASC_NODE": 320.3989, "ARG_OF_PERICENTER": 68.1387, "MEAN_ANOMALY": 292.6479, "EPHEMERIS_TYPE": 0, "CLASSIFICATION_TYPE": "U", "NORAD_CAT_ID": 36279, "ELEMENT_SET_NO": 999, "REV_AT_EPOCH": 88975, "BSTAR": 0.00024838235, "MEAN_MOTION_DOT": 4.46e-06, "MEAN_MOTION_DDOT": 0}, "tle": {"line1": "1 36279U 99025DXG 25342.20831728  .00000446  00000+0  24838-3 0  9990", "line2": "2 36279  98.5605 320.3989 0063067  68.1387 292.6479 14.14724200889752"}}, "geometry": {"type": "Point", "coordinates": [135.10335925751784, -43.624868699036135]}}, {"type": "Feature", "properties": {"norad_id": 36280, "name": "FENGYUN 1C DEB", "group": "fengyun-1c-debris", "lat": -70.39798454807833, "lon": 40.00186729876769, "alt_km": 903.5263957771258, "timestamp": "2025-12-11T07:02:24.018505+00:00", "meta": {"OBJECT_NAME": "FENGYUN 1C DEB", "OBJECT_ID": "1999-025DXH", "EPOCH": "2025-12-08T20:36:31.756896", "MEAN_MOTION": 14.09721696, "ECCENTRICITY": 0.00633707, "INCLINATION": 98.7669, "RA_OF_ASC_NODE": 11.9526, "ARG_OF_PERICENTER": 76.4242, "MEAN_ANOMALY": 102.7342, "EPHEMERIS_TYPE": 0, "CLASSIFICATION_TYPE": "U", "NORAD_CAT_ID": 36280, "ELEMENT_SET_NO": 999, "REV_AT_EPOCH": 86299, "BSTAR": 0.0014880766, "MEAN_MOTION_DOT": 2.619e-05, "MEAN_MOTION_DDOT": 0}, "tle": {"line1": "1 36280U 99025DXH 25342.85870089  .00002619  00000+0  14881-2 0  9996", "line2": "2 36280  98.7669  11.9526 0063370  76.4242 102.7342 14.09721696862992"}}, "geometry": {"type": "Point", "coordinates": [40.00186729876769, -70.39798454807833]}}, {"type": "Feature", "properties": {"norad_id": 36281, "name": "FENGYUN 1C DEB", "group": "fengyun-1c-debris", "lat": 52.167728484312626, "lon": 99.4383661735167, "alt_km": 819.5434800797011, "timestamp": "2025-12-11T07:02:24.018515+00:00", "meta": {"OBJECT_NAME": "FENGYUN 1C DEB", "OBJECT_ID": "1999-025DXJ", "EPOCH": "2025-12-10T18:04:46.995744", "MEAN_MOTION": 13.60231375, "ECCENTRICITY": 0.02898699, "INCLINATION": 99.2579, "RA_OF_ASC_NODE": 266.8031, "ARG_OF_PERICENTER": 115.9886, "MEAN_ANOMALY": 247.1417, "EPHEMERIS_TYPE": 0, "CLASSIFICATION_TYPE": "U", "NORAD_CAT_ID": 36281, "ELEMENT_SET_NO": 999, "REV_AT_EPOCH": 84490, "BSTAR": 0.0038257717, "MEAN_MOTION_DOT": 3.745e-05, "MEAN_MOTION_DDOT": 0}, "tle": {"line1": "1 36281U 99025DXJ 25344.75332171  .00003745  00000+0  38258-2 0  9998", "line2": "2 36281  99.2579 266.8031 0289869 115.9886 247.1417 13.60231375844901"}}, "geometry": {"type": "Point", "coordinates": [99.4383661735167, 52.167728484312626]}}, {"type": "Feature", "properties": {"norad_id": 36283, "name": "FENGYUN 1C DEB", "group": "fengyun-1c-debris", "lat": -78.86202123883514, "lon": 7.5721332993092, "alt_km": 590.7771368330559, "timestamp": "2025-12-11T07:02:24.018525+00:00", "meta": {"OBJECT_NAME": "FENGYUN 1C DEB", "OBJECT_ID": "1999-025DXL", "EPOCH": "2025-12-09T02:47:32.160480", "MEAN_MOTION": 15.05915061, "ECCENTRICITY": 0.00683492, "INCLINATION": 99.4217, "RA_OF_ASC_NODE": 307.4131, "ARG_OF_PERICENTER": 61.5319, "MEAN_ANOMALY": 299.2764, "EPHEMERIS_TYPE": 0, "CLASSIFICATION_TYPE": "U", "NORAD_CAT_ID": 36283, "ELEMENT_SET_NO": 999, "REV_AT_EPOCH": 66611, "BSTAR": 0.0023687932, "MEAN_MOTION_DOT": 0.00036387, "MEAN_MOTION_DDOT": 0}, "tle": {"line1": "1 36283U 99025DXL 25343.11634445  .00036387  00000+0  23688-2 0  9997", "line2": "2 36283  99.4217 307.4131 0068349  61.5319 299.2764 15.05915061666112"}}, "geometry": {"type": "Point", "coordinates": [7.5721332993092, -78.86202123883514]}}, {"type": "Feature", "properties": {"norad_id": 36644, "name": "FENGYUN 1C DEB", "group": "fengyun-1c-debris", "lat": -39.26048568768814, "lon": 131.05204994109818, "alt_km": 1195.3754904330253, "timestamp": "2025-12-11T07:02:24.018535+00:00", "meta": {"OBJECT_NAME": "FENGYUN 1C DEB", "OBJECT_ID": "1999-025DXN", "EPOCH": "2025-12-06T15:56:19.275936", "MEAN_MOTION": 13.59167664, "ECCENTRICITY": 0.02857814, "INCLINATION": 98.4234, "RA_OF_ASC_NODE": 120.1104, "ARG_OF_PERICENTER": 196.1478, "MEAN_ANOMALY": 163.0413, "EPHEMERIS_TYPE": 0, "CLASSIFICATION_TYPE": "U", "NORAD_CAT_ID": 36644, "ELEMENT_SET_NO": 999, "REV_AT_EPOCH": 61485, "BSTAR": 0.0026178612, "MEAN_MOTION_DOT": 2.485e-05, "MEAN_MOTION_DDOT": 0}, "tle": {"line1": "1 36644U 99025DXN 25340.66411199  .00002485  00000+0  26179-2 0  9994", "line2": "2 36644  98.4234 120.1104 0285781 196.1478 163.0413 13.59167664614851"}}, "geometry": {"type": "Point", "coordinates": [131.05204994109818, -39.26048568768814]}}, {"type": "Feature", "properties": {"norad_id": 36647, "name": "FENGYUN 1C DEB", "group": "fengyun-1c-debris", "lat": -36.49889425859601, "lon": 131.02651795142143, "alt_km": 773.5564332162285, "timestamp": "2025-12-11T07:02:24.018545+00:00", "meta": {"OBJECT_NAME": "FENGYUN 1C DEB", "OBJECT_ID": "1999-025DXR", "EPOCH": "2025-12-09T15:26:26.721312", "MEAN_MOTION": 13.8878437, "ECCENTRICITY": 0.0239235, "INCLINATION": 96.1218, "RA_OF_ASC_NODE": 125.385, "ARG_OF_PERICENTER": 308.9455, "MEAN_ANOMALY": 49.0604, "EPHEMERIS_TYPE": 0, "CLASSIFICATION_TYPE": "U", "NORAD_CAT_ID": 36647, "ELEMENT_SET_NO": 999, "REV_AT_EPOCH": 30369, "BSTAR": 0.0035802, "MEAN_MOTION_DOT": 5.41e-05, "MEAN_MOTION_DDOT": 0}, "tle": {"line1": "1 36647U 99025DXR 25343.64336483  .00005410  00000+0  35802-2 0  9994", "line2": "2 36647  96.1218 125.3850 0239235 308.9455  49.0604 13.88784370303690"}}, "geometry": {"type": "Point", "coordinates": [131.02651795142143, -36.49889425859601]}}, {"type": "Feature", "properties": {"norad_id": 36652, "name": "FENGYUN 1C DEB", "group": "fengyun-1c-debris", "lat": -42.57943756850441, "lon": 75.75960413289785, "alt_km": 794.8035979837678, "timestamp": "2025-12-11T07:02:24.018555+00:00", "meta": {"OBJECT_NAME": "FENGYUN 1C DEB", "OBJECT_ID": "1999-025DXW", "EPOCH": "2025-12-09T16:25:20.403552", "MEAN_MOTION": 14.22780284, "ECCENTRICITY": 0.00506653, "INCLINATION": 98.941, "RA_OF_ASC_NODE": 65.8094, "ARG_OF_PERICENTER": 2.278, "MEAN_ANOMALY": 357.8619, "EPHEMERIS_TYPE": 0, "CLASSIFICATION_TYPE": "U", "NORAD_CAT_ID": 36652, "ELEMENT_SET_NO": 999, "REV_AT_EPOCH": 64281, "BSTAR": 0.0025536763, "MEAN_MOTION_DOT": 5.761e-05, "MEAN_MOTION_DDOT": 0}, "tle": {"line1": "1 36652U 99025DXW 25343.68426393  .00005761  00000+0  25537-2 0  9997", "line2": "2 36652  98.9410  65.8094 0050665   2.2780 357.8619 14.22780284642816"}}, "geometry": {"type": "Point", "coordinates": [75.75960413289785, -42.57943756850441]}}, {"type": "Feature", "properties": {"norad_id": 36657, "name": "FENGYUN 1C DEB", "group": "fengyun-1c-debris", "lat": -78.78620681978414, "lon": -167.20798499751373, "alt_km": 750.4385125406643, "timestamp": "2025-12-11T07:02:24.018565+00:00", "meta": {"OBJECT_NAME": "FENGYUN 1C DEB", "OBJECT_ID": "1999-025DYB", "EPOCH": "2025-12-09T21:00:52.013664", "MEAN_MOTION": 14.65488213, "ECCENTRICITY": 0.01058591, "INCLINATION": 99.4125, "RA_OF_ASC_NODE": 134.3752, "ARG_OF_PERICENTER": 75.6977, "MEAN_ANOMALY": 285.5949, "EPHEMERIS_TYPE": 0, "CLASSIFICATION_TYPE": "U", "NORAD_CAT_ID": 36657, "ELEMENT_SET_NO": 999, "REV_AT_EPOCH": 66214, "BSTAR": 0.00094501863, "MEAN_MOTION_DOT": 5.498e-05, "MEAN_MOTION_DDOT": 0}, "tle": {"line1": "1 36657U 99025DYB 25343.87560201  .00005498  00000+0  94502-3 0  9996", "line2": "2 36657  99.4125 134.3752 0105859  75.6977 285.5949 14.65488213662146"}}, "geometry": {"type": "Point", "coordinates": [-167.20798499751373, -78.78620681978414]}}]}